0 THOR ABLESTAR DEB
1   649U 61015HA  19303.62132105 -.00000152 +00000-0 -28396-3 0  9999
2   649 066.2693 001.0425 0555009 119.8613 028.9455 12.64502092686383
0 THOR ABLESTAR DEB
1   652U 61015HD  19303.96746252  .00000125  00000-0  11488-3 0  9996
2   652  66.6944 139.4191 0088599 257.9046 101.2103 14.09080471952356
0 THOR ABLESTAR DEB
1   653U 61015HE  19304.40194477  .00000204  00000-0  30592-3 0  9998
2   653  67.4544 302.9303 0153565 102.4061  46.5455 13.65384566887251
0 THOR ABLESTAR DEB
1   655U 61015HG  19303.90167089 -.00000085  00000-0 -55330-4 0  9990
2   655  67.2562 244.6415 0369633 176.6491 247.6975 13.07699135770644
0 THOR ABLESTAR DEB
1   656U 61015HH  19302.79960767  .00000589  00000-0  13264-2 0  9996
2   656  66.2892  89.0349 0681962 220.5484 134.2787 12.67915337660448
0 THOR ABLESTAR DEB
1   657U 61015HJ  19304.29164785 -.00000598  00000-0 -11493-2 0  9994
2   657  66.2085 245.1518 0332067 177.3172 337.4877 13.11017131787585
0 THOR ABLESTAR DEB
1   658U 61015HK  19304.56853968  .00000233  00000-0  39556-3 0  9998
2   658  65.8671   2.6393 0369339 269.8262  86.0465 13.37498360735991
0 THOR ABLESTAR DEB
1   659U 61015HL  19303.94335723 +.00000053 +00000-0 +28885-3 0  9997
2   659 067.1615 128.2833 0587055 351.5402 159.3484 12.65429570684547
0 THOR ABLESTAR DEB
1   660U 61015HM  19303.74920757 +.00000509 +00000-0 +12564-3 0  9997
2   660 066.5225 169.6592 0042539 167.5182 259.9409 14.60140045028734
0 THOR ABLESTAR R/B
1   669U 63038A   19303.68271878 +.00000019 +00000-0 +16113-4 0  9990
2   669 090.0598 329.6033 0024916 222.9510 275.5437 13.45973007753943
0 TRANSIT 5B-1
1   670U 63038B   19304.59990078  .00000031  00000-0  37417-4 0  9997
2   670  90.0497 330.7664 0043035 120.7008 239.8390 13.44317380749543
0 RADIATION SAT (5E 1)
1   671U 63038C   19304.12518490  .00000025  00000-0  25990-4 0  9997
2   671  90.0507 330.6559 0042279  85.9429 274.6550 13.44832200750186
0 THOR ABLESTAR DEB
1   672U 63038D   19304.61307799 -.00000004  00000-0 -17255-4 0  9994
2   672  90.0616 329.9634 0037818  75.8935  52.1068 13.65592418771842
0 ATLAS CENTAUR 2 R/B
1   694U 63047A   19304.79460577  .00000223  00000-0  16488-4 0  9999
2   694  30.3578  75.2490 0586195 352.8267   6.4236 14.02525235804452
0 ATLAS CENTAUR 2 DEB
1   698U 63047D   19303.65701541 +.00000208 +00000-0 +50677-4 0  9997
2   698 029.9237 049.8286 0548223 148.6276 214.8238 13.69218889746518
0 ATLAS CENTAUR 2 DEB
1   700U 63047F   19303.86346728 +.00000082 +00000-0 +33688-5 0  9990
2   700 030.4828 144.1636 0724212 293.8903 058.7463 13.38571031725426
0 ATLAS CENTAUR 2 DEB
1   701U 63047G   19304.15836456  .00000214  00000-0  51669-4 0  9991
2   701  30.0115 342.3506 0529613  65.3931 300.0888 13.76960132776191
0 WESTFORD NEEDLES
1   702U 63014H   19304.75669786 -.00000013  00000-0 -73166-2 0  9995
2   702  87.3245  61.5403 0229516 353.6277   6.1679  8.65712998784820
0 THOR ABLESTAR R/B
1   703U 63049A   19303.94938914 +.00000004 +00000-0 -88463-5 0  9994
2   703 089.9029 092.1722 0017923 067.1165 042.3045 13.49824697752601
0 TRANSIT 5B-2
1   704U 63049B   19304.55422113  .00000019  00000-0  14940-4 0  9995
2   704  89.9020  92.7275 0036709  58.2241 344.7732 13.46842300746019
0 TRANSIT 5E 3
1   705U 63049C   19303.92211446 +.00000010 +00000-0 +34193-6 0  9996
2   705 089.9021 092.6636 0034657 023.5044 087.8945 13.47339178746136
0 THOR ABLESTAR DEB
1   706U 63049D   19304.38856597  .00000127  00000-0  17029-3 0  9995
2   706  89.9091  95.4208 0025372 290.8960 128.8763 13.55318931755744
0 THOR ABLESTAR DEB
1   715U 63049E   19303.92667336 +.00000288 +00000-0 +30787-3 0  9999
2   715 089.9233 099.4967 0029693 214.3948 299.1400 13.71547525771137
0 TIROS 8
1   716U 63054A   19303.88965992 -.00000044 +00000-0 +23655-4 0  9998
2   716 058.4959 331.6351 0026754 034.9319 325.3467 14.69505646959538
0 DELTA 1 DEB
1   720U 63054C   19303.73302648 -.00000076 +00000-0 +23584-4 0  9996
2   720 058.4717 117.8383 0105905 271.3138 087.5759 14.46993342930715
0 SCOUT X-4 R/B
1   721U 63053B   19303.83498045 +.00000057 +00000-0 +36877-4 0  9991
2   721 078.6098 334.9122 1086451 228.0783 122.2600 12.53690872546516
0 SCOUT X-4 DEB
1   724U 63053E   19304.07297253  .00002871  00000-0  68999-3 0  9994
2   724  78.6031  53.2317 0384162 110.3568 253.9303 14.16756270690851
0 THOR AGENA D R/B
1   727U 64001A   19303.83770454 -.00000039  00000-0  10677-4 0  9999
2   727  69.9053  85.9901 0016528 275.6215  84.3004 13.95376169839809
0 GGSE 1 (GGRS)
1   728U 64001B   19304.73554117 -.00000013  00000-0  29299-4 0  9998
2   728  69.9097  12.8636 0015755 232.7269 127.2401 13.97148531842002
0 SECOR 1B
1   729U 64001C   19304.73338109 -.00000040  00000-0  10031-4 0  9994
2   729  69.9004  83.2964 0016687 294.9745  64.9625 13.94898093839699
0 SOLRAD 7A
1   730U 64001D   19304.82696944 -.00000025  00000-0  20736-4 0  9996
2   730  69.9065  72.4189 0016735 263.2515 251.5704 13.95618998723481
0 GREB
1   731U 64001E   19304.76717360 -.00000016  00000-0  27940-4 0  9990
2   731  69.9069  64.8117 0016782 260.3827  99.5382 13.95841282840259
0 SCOUT X-4 DEB
1   732U 63053H   19303.93438827 +.00000821 +00000-0 +33315-3 0  9998
2   732 078.5843 290.9570 0529041 283.4426 070.8296 13.71605142640474
0 THOR AGENA D R/B
1   733U 64002A   19304.65461343  .00000019  00000-0  24710-4 0  9992
2   733  99.0374 181.8784 0033704 179.3510 180.7722 14.32371837906345
0 OPS 3367 A
1   734U 64002B   19304.52565260 -.00000009  00000-0  15434-4 0  9995
2   734  99.1094 105.8921 0014468 357.3091   2.8009 14.28859851903108
0 OPS 3367 B
1   735U 64002C   19303.92859006 -.00000020 +00000-0 +11418-4 0  9994
2   735 099.1094 099.7970 0017701 099.0112 261.3071 14.27813748901160
0 RELAY 2
1   737U 64003A   19303.04755612 -.00000016  00000-0  00000+0 0  9993
2   737  46.4476 191.4710 2587067 186.3029 169.7651  7.39527698507156
0 DELTA 1 R/B
1   738U 64003B   19303.03806441 -.00000012  00000-0  62251-3 0  9996
2   738  46.4471 199.4328 2590651 179.1014 181.5636  7.39317785506587
0 ATLAS CENTAUR 2 DEB
1   739U 63047H   19303.66536245 +.00000251 +00000-0 +24013-4 0  9994
2   739 030.4268 053.7698 0647294 210.5287 145.6057 13.82384588805909
0 THOR AGENA B R/B
1   741U 64004B   19304.68651465 -.00000013  00000-0 -54821-4 0  9994
2   741  81.4902 340.4620 0173187  86.4347  50.3372 13.23655070693297
0 THOR AGENA B DEB
1   742U 64004C   19304.33895677  .00000055  00000-0  95772-4 0  9996
2   742  81.4669 246.3061 0172460 340.1007  19.3444 13.25946415696507
0 THOR AGENA B DEB
1   743U 64004D   19304.26157894  .00000044  00000-0  70489-4 0  9997
2   743  81.5233 346.1412 0173612 228.6210 200.0998 13.26461397697125
0 THOR ABLESTAR DEB
1   745U 63038E   19304.58426584  .00000099  00000-0  13088-3 0  9996
2   745  90.0672 329.5061 0018862 139.7383 343.7049 13.54445069763789
0 ELEKTRON 1
1   746U 64006A   19304.17495945 -.00000042  00000-0  41807-5 0  9996
2   746  60.8514 204.6037 3028956 328.4200  16.5380  9.03645689847852
0 ELEKTRON 1 DEB
1   750U 64006C   19304.35001011  .00001902  00000-0  24060-3 0  9993
2   750  60.7660  81.3370 1715426  63.8280 312.8774 11.78099594555532
0 THOR ABLESTAR DEB
1   753U 63049F   19303.92011828  .00000077  00000-0  99804-4 0  9992
2   753  89.9084  95.0674 0031238  48.6984 104.7720 13.53742783753315
0 OPS 4412 (TRANSIT 9)
1   801U 64026A   19304.68166797  .00000150  00000-0  72884-4 0  9993
2   801  90.5150  53.4533 0046605 270.6636  88.9211 14.14589549844167
0 SCOUT X-4 DEB
1   805U 64026B   19303.15585913  .00000550  00000-0  22011-3 0  9993
2   805  89.9158 359.8270 0030900 271.2509  88.5145 14.27126686843972
0 SCOUT X-4 R/B
1   809U 64026D   19303.80887543 +.00000047 +00000-0 +21967-4 0  9994
2   809 090.5051 045.4662 0038638 238.4314 121.3096 14.09092695837420
0 OPS 4467 A
1   812U 64031A   19304.16852915 -.00000033  00000-0  91130-5 0  9995
2   812  99.8323 146.3121 0006049  36.2747 323.8837 14.23846659872169
0 OPS 4467 B
1   813U 64031B   19304.19875997 -.00000027  00000-0  12085-4 0  9998
2   813  99.8427 144.8383 0006078 105.5692 254.6154 14.23043975871037
0 THOR AGENA D R/B
1   815U 64031C   19304.35230256  .00000002  00000-0  23237-4 0  9994
2   815  99.8463 276.5271 0011034 275.0648  84.9269 14.27309883875986
0 ELEKTRON 3
1   829U 64038A   19303.82032197 +.00000371 +00000-0 +10905-3 0  9997
2   829 060.7980 287.3890 2985136 065.8234 322.4538 09.13917071793497
0 ELEKTRON 3 DEB
1   831U 64038C   19304.18881732  .00002435  00000-0  31842-3 0  9993
2   831  60.7183 181.5028 1596207 306.7214  39.7213 12.01240863 68474
0 SYNCOM 3
1   858U 64047A   19303.83730062 -.00000021 +00000-0 +00000-0 0  9991
2   858 001.2134 069.3708 0003084 173.8648 166.8112 01.00142679029184
0 DELTA 1 R/B
1   862U 64047B   19303.50006309 -.00000194  00000-0  15309-2 0  9991
2   862  16.5617 308.9325 7120228 168.7607 247.5068  2.05099863208757
0 EXPLORER 20
1   870U 64051A   19304.70524534  .00000056  00000-0  36864-4 0  9990
2   870  79.9013  31.0006 0098260 160.7479 199.7433 13.91138641797315
0 SCOUT X-4 R/B
1   871U 64051B   19304.12928250  .00000096  00000-0  57932-4 0  9993
2   871  79.8959 218.9841 0087647 113.4134 247.6274 13.99298425806612
0 COSMOS 44
1   876U 64053A   19304.35343707 -.00000079  00000-0  10070-4 0  9997
2   876  65.0605 263.5937 0126416 136.6618 224.4510 14.63742580934713
0 SL-3 R/B
1   877U 64053B   19304.12181463 -.00000075  00000-0  93494-5 0  9990
2   877  65.0772 282.0315 0054633 142.4273 218.0663 14.59374612927877
0 OGO 1
1   879U 64054A   19307.45417769 -.00000198  00000-0  00000+0 0  9994
2   879  69.8792 319.9587 8619239 201.7522   0.9993  0.37773790 20719
0 THOR ABLESTAR R/B
1   893U 64063A   19303.86043378 +.00000022 +00000-0 +18301-4 0  9995
2   893 090.1605 027.4943 0027360 094.1594 042.6774 13.56122171723845
